              M50 Cartesian                         M50 Keplerian  
    -----------------------------------       --------------------------------
     X    =        4625752.56                 A    =         6786344.94  meter
     Y    =        4033016.62  meter          E    =           .0003547
     Z    =       -2895456.65                 I    =           51.52333
     XDOT =      -5252.445123                 Wp   =          137.17837
     YDOT =       2416.302930  meter/sec      RA   =          199.06113  deg
     ZDOT =      -5031.817853                 TA   =           75.84950
                                              MA   =           75.81009
                                              Ha   =            220.685  n.mi
                                              Hp   =            215.603
 
              M50 Cartesian                         J2K Cartesian  
    -----------------------------------       --------------------------------
     X    =       15176353.55                 X    =         4594375.25
     Y    =       13231681.82  feet           Y    =         4084568.98  meter
     Z    =       -9499529.70                 Z    =        -2873063.07
     XDOT =     -17232.431506                 XDOT =       -5254.632414
     YDOT =       7927.503050  feet/sec       YDOT =        2357.553608  meter/sec
     ZDOT =     -16508.588758                 ZDOT =       -5057.338204
 
              TDR Cartesian                         TDR Cartesian  
    -----------------------------------       --------------------------------
     X    =       11518422.05                 X    =         3510815.04
     Y    =       16569546.09  feet           Y    =         5050397.65  meter
     Z    =       -9402992.68                 Z    =        -2866032.17
     XDOT =     -17340.322689                 XDOT =       -5285.330356
     YDOT =       2634.403358  feet/sec       YDOT =         802.966144  meter/sec
     ZDOT =     -16619.691936                 ZDOT =       -5065.682102
  
  
    The mean element set is posted at the UTC for which position is
    just north of the next ascending node relative to the above
    vector time
 
 
    TWO LINE MEAN ELEMENT SET
  
    ISS
    1 25544U 98067A   16068.52636125  .00016717  00000-0  10270-3 0  9019
    2 25544  51.6409 200.0289 0001764 254.3350 105.7608 15.53956748 29324
  
  
    Satellite: ISS
    Catalog Number: 25544
    Epoch time:      16068.52636125   =   yrday.fracday
    Element set:     901
    Inclination:       51.6409  deg
    RA of node:       200.0289  deg
    Eccentricity:     .0001764     
    Arg of perigee:   254.3350  deg
    Mean anomaly:     105.7608  deg
    Mean motion:   15.53956748  rev/day
    Decay rate:    1.67170E-04  rev/day^2
    Epoch rev:            2932
    Checksum:              307
 
 
    Coasting Arc #3 (Orbit 2947)
    ---------------------------------------
 
    Vector Time (GMT): 2016/069/12:00:00.000
    Vector Time (MET): N/A
    Weight (LBS)     : 890089.9
 
              M50 Cartesian                         M50 Keplerian  
    -----------------------------------       --------------------------------
     X    =       -3350120.14                 A    =         6782540.62  meter
     Y    =       -4213725.41  meter          E    =           .0008859
     Z    =        4120726.99                 I    =           51.54300
     XDOT =       6508.752796                 Wp   =          108.54505
     YDOT =      -1465.995122  meter/sec      RA   =          194.07195  deg
     ZDOT =       3783.050175                 TA   =          302.37064
                                              MA   =          302.45635
                                              Ha   =            220.574  n.mi
                                              Hp   =            215.538
 
              M50 Cartesian                         J2K Cartesian  
    -----------------------------------       --------------------------------
     X    =      -10991207.80                 X    =        -3322768.73
     Y    =      -13824558.45  feet           Y    =        -4251035.09  meter
     Z    =       13519445.51                 Z    =         4104520.24
     XDOT =      21354.175841                 XDOT =        6506.285944
     YDOT =      -4809.695283  feet/sec       YDOT =       -1393.223104  meter/sec
     ZDOT =      12411.581940                 ZDOT =        3814.661963
 
              TDR Cartesian                         TDR Cartesian  
    -----------------------------------       --------------------------------
     X    =       -7617361.71                 X    =        -2321771.85
     Y    =      -15993122.13  feet           Y    =        -4874703.63  meter
     Z    =       13449770.16                 Z    =         4099489.94
     XDOT =      20643.572125                 XDOT =        6292.160784
     YDOT =        747.188138  feet/sec       YDOT =         227.742944  meter/sec
     ZDOT =      12548.977442                 ZDOT =        3824.928324
  
  
    The mean element set is posted at the UTC for which position is
    just north of the next ascending node relative to the above
    vector time
 
 
    TWO LINE MEAN ELEMENT SET
  
    ISS
    1 25544U 98067A   16069.55529832  .00016717  00000-0  10270-3 0  9020
    2 25544  51.6422 194.9011 0001880 259.5654 100.5286 15.54011433 29482
  
  
    Satellite: ISS
    Catalog Number: 25544
    Epoch time:      16069.55529832   =   yrday.fracday
    Element set:     902
    Inclination:       51.6422  deg
    RA of node:       194.9011  deg
    Eccentricity:     .0001880     
    Arg of perigee:   259.5654  deg
    Mean anomaly:     100.5286  deg
    Mean motion:   15.54011433  rev/day
    Decay rate:    1.67170E-04  rev/day^2
    Epoch rev:            2948
    Checksum:              306
 
 
    Coasting Arc #4 (Orbit 2962)
    ---------------------------------------
 
    Vector Time (GMT): 2016/070/12:00:00.000
    Vector Time (MET): N/A
    Weight (LBS)     : 890089.9
 
              M50 Cartesian                         M50 Keplerian  
    -----------------------------------       --------------------------------
     X    =        1767793.97                 A    =         6779296.78  meter
     Y    =        4273803.95  meter          E    =           .0010658
     Z    =       -4966511.88                 I    =           51.56431
     XDOT =      -7334.389203                 Wp   =           72.22060
     YDOT =        547.990856  meter/sec      RA   =          189.07570  deg
     ZDOT =      -2139.669145                 TA   =          176.89022
                                              MA   =          176.88359
                                              Ha   =            220.538  n.mi
                                              Hp   =            215.549
 
              M50 Cartesian                         J2K Cartesian  
    -----------------------------------       --------------------------------
     X    =        5799848.97                 X    =         1743996.88
     Y    =       14021666.51  feet           Y    =         4293438.74  meter
     Z    =      -16294330.30                 Z    =        -4957982.92
     XDOT =     -24062.956702                 XDOT =       -7329.578337
     YDOT =       1797.870262  feet/sec       YDOT =         465.999394  meter/sec
     ZDOT =      -7019.911892                 ZDOT =       -2175.285952
 
              TDR Cartesian                         TDR Cartesian  
    -----------------------------------       --------------------------------
     X    =        2794014.99                 X    =          851615.77
     Y    =       14954006.86  feet           Y    =         4557981.29  meter
     Z    =      -16257974.62                 Z    =        -4955430.66
     XDOT =     -22761.100056                 XDOT =       -6937.583297
     YDOT =      -3545.305449  feet/sec       YDOT =       -1080.609101  meter/sec
     ZDOT =      -7174.556810                 ZDOT =       -2186.804916
  
  
    The mean element set is posted at the UTC for which position is
    just north of the next ascending node relative to the above
    vector time
 
 
    TWO LINE MEAN ELEMENT SET
  
    ISS
    1 25544U 98067A   16070.51991172  .00016717  00000-0  10270-3 0  9039
    2 25544  51.6431 190.0945 0001789 267.3863  92.7084 15.54005152 29638
  
  
    Satellite: ISS
    Catalog Number: 25544
    Epoch time:      16070.51991172   =   yrday.fracday
    Element set:     903
    Inclination:       51.6431  deg
    RA of node:       190.0945  deg
    Eccentricity:     .0001789     
    Arg of perigee:   267.3863  deg
    Mean anomaly:      92.7084  deg
    Mean motion:   15.54005152  rev/day
    Decay rate:    1.67170E-04  rev/day^2
    Epoch rev:            2963
    Checksum:              311
 
 
    Coasting Arc #5 (Orbit 2969)
    ---------------------------------------
 
    Vector Time (GMT): 2016/070/23:10:00.000
    Vector Time (MET): N/A
    Weight (LBS)     : 890089.9
 
              M50 Cartesian                         M50 Keplerian  
    -----------------------------------       --------------------------------
     X    =       -6260992.01                 A    =         6787258.98  meter
     Y    =        1140345.29  meter          E    =           .0005022
     Z    =       -2353665.20                 I    =           51.60377
     XDOT =      -2866.913590                 Wp   =           28.45279
     YDOT =      -4637.622773  meter/sec      RA   =          186.72079  deg
     ZDOT =       5388.426373                 TA   =          305.27758
                                              MA   =          305.32456
                                              Ha   =            220.540  n.mi
                                              Hp   =            215.431
 
